[
    {
        "Altitude(m)": 604221.1958122121,
        "Argument of Periapsis(deg)": 0.0,
        "Eccentricity": 0.0,
        "Inclination(deg)": 60.0,
        "Latitude(deg)": 14.117197295912668,
        "Longitude(deg)": -121.66583481500065,
        "Mean Anomaly(deg)": 16.363599999999984,
        "RAAN(deg)": 330.0,
        "Satellite Name": "Test1 1453",
        "Satellite Number": 1453,
        "Semi-Major Axis(m)": 6980739.136638005,
        "Time(s)": 0
    },
    {
        "Altitude(m)": 604235.3363888891,
        "Argument of Periapsis(deg)": 0.00010418945913296404,
        "Eccentricity": 0.0,
        "Inclination(deg)": 60.0,
        "Latitude(deg)": 14.651593832503728,
        "Longitude(deg)": -121.37738748414186,
        "Mean Anomaly(deg)": 16.983706145461838,
        "RAAN(deg)": 329.9995799508602,
        "Satellite Name": "Test1 1453",
        "Satellite Number": 1453,
        "Semi-Major Axis(m)": 6980739.136638005,
        "Time(s)": 10
    },
    {
        "Altitude(m)": 604252.3740649895,
        "Argument of Periapsis(deg)": 0.0002083789182659281,
        "Eccentricity": 0.0,
        "Inclination(deg)": 60.0,
        "Latitude(deg)": 15.185500556967284,
        "Longitude(deg)": -121.08733715743388,
        "Mean Anomaly(deg)": 17.60381229092364,
        "RAAN(deg)": 329.9991599017205,
        "Satellite Name": "Test1 1453",
        "Satellite Number": 1453,
        "Semi-Major Axis(m)": 6980739.136638005,
        "Time(s)": 20
    },
    {
        "Altitude(m)": 604272.2770118769,
        "Argument of Periapsis(deg)": 0.00031256837739889213,
        "Eccentricity": 0.0,
        "Inclination(deg)": 60.0,
        "Latitude(deg)": 15.718896164689829,
        "Longitude(deg)": -120.79561632281334,
        "Mean Anomaly(deg)": 18.223918436385496,
        "RAAN(deg)": 329.9987398525808,
        "Satellite Name": "Test1 1453",
        "Satellite Number": 1453,
        "Semi-Major Axis(m)": 6980739.136638005,
        "Time(s)": 30
    },
    {
        "Altitude(m)": 604295.0121261844,
        "Argument of Periapsis(deg)": 0.0004167578365318562,
        "Eccentricity": 0.0,
        "Inclination(deg)": 60.0,
        "Latitude(deg)": 16.251759015341463,
        "Longitude(deg)": -120.50215594560915,
        "Mean Anomaly(deg)": 18.844024581847297,
        "RAAN(deg)": 329.998319803441,
        "Satellite Name": "Test1 1453",
        "Satellite Number": 1453,
        "Semi-Major Axis(m)": 6980739.136638005,
        "Time(s)": 40
    },
    {
        "Altitude(m)": 604320.5450487493,
        "Argument of Periapsis(deg)": 0.0005209472956648203,
        "Eccentricity": 0.0,
        "Inclination(deg)": 60.0,
        "Latitude(deg)": 16.784067116841037,
        "Longitude(deg)": -120.20688643296059,
        "Mean Anomaly(deg)": 19.46413072730915,
        "RAAN(deg)": 329.9978997543013,
        "Satellite Name": "Test1 1453",
        "Satellite Number": 1453,
        "Semi-Major Axis(m)": 6980739.136638005,
        "Time(s)": 50
    },
    {
        "Altitude(m)": 604348.84018413,
        "Argument of Periapsis(deg)": 0.0006251367547977843,
        "Eccentricity": 0.0,
        "Inclination(deg)": 60.0,
        "Latitude(deg)": 17.315798108835782,
        "Longitude(deg)": -119.90973708451027,
        "Mean Anomaly(deg)": 20.084236872771,
        "RAAN(deg)": 329.99747970516154,
        "Satellite Name": "Test1 1453",
        "Satellite Number": 1453,
        "Semi-Major Axis(m)": 6980739.136638005,
        "Time(s)": 60
    },
    {
        "Altitude(m)": 604379.8607207166,
        "Argument of Periapsis(deg)": 0.0007293262139307483,
        "Eccentricity": 0.0,
        "Inclination(deg)": 60.0,
        "Latitude(deg)": 17.846929245675163,
        "Longitude(deg)": -119.61063554221654,
        "Mean Anomaly(deg)": 20.704343018232805,
        "RAAN(deg)": 329.9970596560218,
        "Satellite Name": "Test1 1453",
        "Satellite Number": 1453,
        "Semi-Major Axis(m)": 6980739.136638005,
        "Time(s)": 70
    },
    {
        "Altitude(m)": 604413.5686514165,
        "Argument of Periapsis(deg)": 0.0008335156730637124,
        "Eccentricity": 0.0,
        "Inclination(deg)": 60.0,
        "Latitude(deg)": 18.377437378855934,
        "Longitude(deg)": -119.3095087521359,
        "Mean Anomaly(deg)": 21.32444916369466,
        "RAAN(deg)": 329.99663960688207,
        "Satellite Name": "Test1 1453",
        "Satellite Number": 1453,
        "Semi-Major Axis(m)": 6980739.136638005,
        "Time(s)": 80
    },
    {
        "Altitude(m)": 604449.9247948811,
        "Argument of Periapsis(deg)": 0.0009377051321966765,
        "Eccentricity": 0.0,
        "Inclination(deg)": 60.0,
        "Latitude(deg)": 18.90729893891013,
        "Longitude(deg)": -119.00628241240575,
        "Mean Anomaly(deg)": 21.94455530915646,
        "RAAN(deg)": 329.9962195577423,
        "Satellite Name": "Test1 1453",
        "Satellite Number": 1453,
        "Semi-Major Axis(m)": 6980739.136638005,
        "Time(s)": 90
    },
    {
        "Altitude(m)": 604488.8888173347,
        "Argument of Periapsis(deg)": 0.0010418945913296407,
        "Eccentricity": 0.0,
        "Inclination(deg)": 60.0,
        "Latitude(deg)": 19.43648991671307,
        "Longitude(deg)": -118.70088042027938,
        "Mean Anomaly(deg)": 22.564661454618314,
        "RAAN(deg)": 329.99579950860254,
        "Satellite Name": "Test1 1453",
        "Satellite Number": 1453,
        "Semi-Major Axis(m)": 6980739.136638005,
        "Time(s)": 100
    },
    {
        "Altitude(m)": 604530.4192548755,
        "Argument of Periapsis(deg)": 0.0011460840504626045,
        "Eccentricity": 0.0,
        "Inclination(deg)": 60.0,
        "Latitude(deg)": 19.96498584418553,
        "Longitude(deg)": -118.39322583106568,
        "Mean Anomaly(deg)": 23.184767600080114,
        "RAAN(deg)": 329.99537945946287,
        "Satellite Name": "Test1 1453",
        "Satellite Number": 1453,
        "Semi-Major Axis(m)": 6980739.136638005,
        "Time(s)": 110
    },
    {
        "Altitude(m)": 604574.4735363587,
        "Argument of Periapsis(deg)": 0.0012502735095955685,
        "Eccentricity": 0.0,
        "Inclination(deg)": 60.0,
        "Latitude(deg)": 20.492761774360982,
        "Longitude(deg)": -118.08324030321013,
        "Mean Anomaly(deg)": 23.80487374554197,
        "RAAN(deg)": 329.9949594103231,
        "Satellite Name": "Test1 1453",
        "Satellite Number": 1453,
        "Semi-Major Axis(m)": 6980739.136638005,
        "Time(s)": 120
    },
    {
        "Altitude(m)": 604621.0080067755,
        "Argument of Periapsis(deg)": 0.0013544629687285324,
        "Eccentricity": 0.0,
        "Inclination(deg)": 60.0,
        "Latitude(deg)": 21.01979226079049,
        "Longitude(deg)": -117.77084354237432,
        "Mean Anomaly(deg)": 24.424979891003822,
        "RAAN(deg)": 329.99453936118334,
        "Satellite Name": "Test1 1453",
        "Satellite Number": 1453,
        "Semi-Major Axis(m)": 6980739.136638005,
        "Time(s)": 130
    },
    {
        "Altitude(m)": 604669.977951119,
        "Argument of Periapsis(deg)": 0.0014586524278614966,
        "Eccentricity": 0.0,
        "Inclination(deg)": 60.0,
        "Latitude(deg)": 21.546051336259154,
        "Longitude(deg)": -117.45595425737253,
        "Mean Anomaly(deg)": 25.045086036465623,
        "RAAN(deg)": 329.99411931204355,
        "Satellite Name": "Test1 1453",
        "Satellite Number": 1453,
        "Semi-Major Axis(m)": 6980739.136638005,
        "Time(s)": 140
    },
    {
        "Altitude(m)": 604721.3376187617,
        "Argument of Periapsis(deg)": 0.0015628418869944607,
        "Eccentricity": 0.0,
        "Inclination(deg)": 60.0,
        "Latitude(deg)": 22.071512490780826,
        "Longitude(deg)": -117.13848960221014,
        "Mean Anomaly(deg)": 25.665192181927477,
        "RAAN(deg)": 329.9936992629039,
        "Satellite Name": "Test1 1453",
        "Satellite Number": 1453,
        "Semi-Major Axis(m)": 6980739.136638005,
        "Time(s)": 150
    },
    {
        "Altitude(m)": 604775.040248296,
        "Argument of Periapsis(deg)": 0.0016670313461274247,
        "Eccentricity": 0.0,
        "Inclination(deg)": 60.0,
        "Latitude(deg)": 22.596148648842146,
        "Longitude(deg)": -116.81836461708909,
        "Mean Anomaly(deg)": 26.285298327389278,
        "RAAN(deg)": 329.99327921376414,
        "Satellite Name": "Test1 1453",
        "Satellite Number": 1453,
        "Semi-Major Axis(m)": 6980739.136638005,
        "Time(s)": 160
    },
    {
        "Altitude(m)": 604831.038092839,
        "Argument of Periapsis(deg)": 0.0017712208052603888,
        "Eccentricity": 0.0,
        "Inclination(deg)": 60.0,
        "Latitude(deg)": 23.119932145866798,
        "Longitude(deg)": -116.49549318124826,
        "Mean Anomaly(deg)": 26.90540447285113,
        "RAAN(deg)": 329.99285916462435,
        "Satellite Name": "Test1 1453",
        "Satellite Number": 1453,
        "Semi-Major Axis(m)": 6980739.136638005,
        "Time(s)": 170
    },
    {
        "Altitude(m)": 604889.2824457813,
        "Argument of Periapsis(deg)": 0.001875410264393353,
        "Eccentricity": 0.0,
        "Inclination(deg)": 60.0,
        "Latitude(deg)": 23.642834703863933,
        "Longitude(deg)": -116.1697874518947,
        "Mean Anomaly(deg)": 27.525510618312932,
        "RAAN(deg)": 329.9924391154846,
        "Satellite Name": "Test1 1453",
        "Satellite Number": 1453,
        "Semi-Major Axis(m)": 6980739.136638005,
        "Time(s)": 180
    },
    {
        "Altitude(m)": 604949.7236669848,
        "Argument of Periapsis(deg)": 0.0019795997235263173,
        "Eccentricity": 0.0,
        "Inclination(deg)": 60.0,
        "Latitude(deg)": 24.16482740623022,
        "Longitude(deg)": -115.84115730210202,
        "Mean Anomaly(deg)": 28.14561676377479,
        "RAAN(deg)": 329.99201906634494,
        "Satellite Name": "Test1 1453",
        "Satellite Number": 1453,
        "Semi-Major Axis(m)": 6980739.136638005,
        "Time(s)": 190
    }
]